[{"OBJECT_NAME":"ONEWEB-0315","OBJECT_ID":"2021-075AC","EPOCH":"2026-02-23T03:47:05.129664","MEAN_MOTION":13.12445648,"ECCENTRICITY":0.00018381,"INCLINATION":87.8985,"RA_OF_ASC_NODE":13.2728,"ARG_OF_PERICENTER":69.3037,"MEAN_ANOMALY":290.8288,"EPHEMERIS_TYPE":0,"CLASSIFICATION_TYPE":"U","NORAD_CAT_ID":49101,"ELEMENT_SET_NO":999,"REV_AT_EPOCH":22021,"BSTAR":0.00015076696,"MEAN_MOTION_DOT":6.7e-7,"MEAN_MOTION_DDOT":0},{"OBJECT_NAME":"ONEWEB-0316","OBJECT_ID":"2021-075AD","EPOCH":"2026-02-23T06:26:16.167552","MEAN_MOTION":13.1868814,"ECCENTRICITY":0.0001837,"INCLINATION":87.9233,"RA_OF_ASC_NODE":358.0821,"ARG_OF_PERICENTER":75.738,"MEAN_ANOMALY":284.3956,"EPHEMERIS_TYPE":0,"CLASSIFICATION_TYPE":"U","NORAD_CAT_ID":49102,"ELEMENT_SET_NO":999,"REV_AT_EPOCH":22219,"BSTAR":0.0001765344,"MEAN_MOTION_DOT":8.3e-7,"MEAN_MOTION_DDOT":0},{"OBJECT_NAME":"ONEWEB-0317","OBJECT_ID":"2021-075AE","EPOCH":"2026-02-23T03:51:58.760928","MEAN_MOTION":13.12443918,"ECCENTRICITY":0.0002121,"INCLINATION":87.8988,"RA_OF_ASC_NODE":13.294,"ARG_OF_PERICENTER":102.1633,"MEAN_ANOMALY":257.9733,"EPHEMERIS_TYPE":0,"CLASSIFICATION_TYPE":"U","NORAD_CAT_ID":49103,"ELEMENT_SET_NO":999,"REV_AT_EPOCH":22023,"BSTAR":0.00010471745,"MEAN_MOTION_DOT":5.0e-7,"MEAN_MOTION_DDOT":0},{"OBJECT_NAME":"ONEWEB-0318","OBJECT_ID":"2021-075AF","EPOCH":"2026-02-23T06:21:32.699520","MEAN_MOTION":13.18685569,"ECCENTRICITY":0.00018916,"INCLINATION":87.9243,"RA_OF_ASC_NODE":358.0744,"ARG_OF_PERICENTER":71.2163,"MEAN_ANOMALY":288.9175,"EPHEMERIS_TYPE":0,"CLASSIFICATION_TYPE":"U","NORAD_CAT_ID":49104,"ELEMENT_SET_NO":999,"REV_AT_EPOCH":22215,"BSTAR":0.0003527989,"MEAN_MOTION_DOT":1.52e-6,"MEAN_MOTION_DDOT":0},{"OBJECT_NAME":"ONEWEB-0319","OBJECT_ID":"2021-075AG","EPOCH":"2026-02-23T04:38:14.517312","MEAN_MOTION":13.17648333,"ECCENTRICITY":0.00018796,"INCLINATION":87.9119,"RA_OF_ASC_NODE":28.5084,"ARG_OF_PERICENTER":66.0943,"MEAN_ANOMALY":294.0385,"EPHEMERIS_TYPE":0,"CLASSIFICATION_TYPE":"U","NORAD_CAT_ID":49105,"ELEMENT_SET_NO":999,"REV_AT_EPOCH":21859,"BSTAR":0.00014400608,"MEAN_MOTION_DOT":6.9e-7,"MEAN_MOTION_DDOT":0},{"OBJECT_NAME":"ONEWEB-0323","OBJECT_ID":"2021-075AH","EPOCH":"2026-02-23T03:25:07.340448","MEAN_MOTION":13.12444257,"ECCENTRICITY":0.00021963,"INCLINATION":87.8984,"RA_OF_ASC_NODE":13.28,"ARG_OF_PERICENTER":64.9988,"MEAN_ANOMALY":295.1368,"EPHEMERIS_TYPE":0,"CLASSIFICATION_TYPE":"U","NORAD_CAT_ID":49106,"ELEMENT_SET_NO":999,"REV_AT_EPOCH":21959,"BSTAR":-0.00074082299,"MEAN_MOTION_DOT":-2.54e-6,"MEAN_MOTION_DDOT":0},{"OBJECT_NAME":"ONEWEB-0329","OBJECT_ID":"2021-075AJ","EPOCH":"2026-02-23T04:50:22.909920","MEAN_MOTION":13.17648149,"ECCENTRICITY":0.00020246,"INCLINATION":87.9119,"RA_OF_ASC_NODE":28.5071,"ARG_OF_PERICENTER":81.1725,"MEAN_ANOMALY":278.9636,"EPHEMERIS_TYPE":0,"CLASSIFICATION_TYPE":"U","NORAD_CAT_ID":49107,"ELEMENT_SET_NO":999,"REV_AT_EPOCH":21857,"BSTAR":0.00015639349,"MEAN_MOTION_DOT":7.4e-7,"MEAN_MOTION_DDOT":0},{"OBJECT_NAME":"ONEWEB-0330","OBJECT_ID":"2021-075AK","EPOCH":"2026-02-23T04:51:36.268704","MEAN_MOTION":13.17647572,"ECCENTRICITY":0.00021499,"INCLINATION":87.9122,"RA_OF_ASC_NODE":28.5149,"ARG_OF_PERICENTER":84.8925,"MEAN_ANOMALY":275.2452,"EPHEMERIS_TYPE":0,"CLASSIFICATION_TYPE":"U","NORAD_CAT_ID":49108,"ELEMENT_SET_NO":999,"REV_AT_EPOCH":21861,"BSTAR":0.00019029536,"MEAN_MOTION_DOT":8.7e-7,"MEAN_MOTION_DDOT":0},{"OBJECT_NAME":"ONEWEB-0292","OBJECT_ID":"2021-083A","EPOCH":"2026-02-23T04:53:33.654336","MEAN_MOTION":13.13468205,"ECCENTRICITY":0.00018215,"INCLINATION":87.9034,"RA_OF_ASC_NODE":342.9149,"ARG_OF_PERICENTER":72.9422,"MEAN_ANOMALY":287.1907,"EPHEMERIS_TYPE":0,"CLASSIFICATION_TYPE":"U","NORAD_CAT_ID":49186,"ELEMENT_SET_NO":999,"REV_AT_EPOCH":21596,"BSTAR":-0.0005273121,"MEAN_MOTION_DOT":-1.8e-6,"MEAN_MOTION_DDOT":0},{"OBJECT_NAME":"ONEWEB-0303","OBJECT_ID":"2021-083B","EPOCH":"2026-02-23T06:16:47.258112","MEAN_MOTION":13.18685264,"ECCENTRICITY":0.00018814,"INCLINATION":87.9244,"RA_OF_ASC_NODE":358.0773,"ARG_OF_PERICENTER":73.4422,"MEAN_ANOMALY":286.6917,"EPHEMERIS_TYPE":0,"CLASSIFICATION_TYPE":"U","NORAD_CAT_ID":49187,"ELEMENT_SET_NO":999,"REV_AT_EPOCH":21496,"BSTAR":0.00029072342,"MEAN_MOTION_DOT":1.28e-6,"MEAN_MOTION_DDOT":0},{"OBJECT_NAME":"ONEWEB-0306","OBJECT_ID":"2021-083C","EPOCH":"2026-02-23T06:02:32.057952","MEAN_MOTION":13.18685175,"ECCENTRICITY":0.00018894,"INCLINATION":87.924,"RA_OF_ASC_NODE":358.0634,"ARG_OF_PERICENTER":86.6058,"MEAN_ANOMALY":273.529,"EPHEMERIS_TYPE":0,"CLASSIFICATION_TYPE":"U","NORAD_CAT_ID":49188,"ELEMENT_SET_NO":999,"REV_AT_EPOCH":21500,"BSTAR":0.00023001072,"MEAN_MOTION_DOT":1.04e-6,"MEAN_MOTION_DDOT":0},{"OBJECT_NAME":"ONEWEB-0307","OBJECT_ID":"2021-083D","EPOCH":"2026-02-23T06:34:43.895424","MEAN_MOTION":13.13468033,"ECCENTRICITY":0.00018042,"INCLINATION":87.9035,"RA_OF_ASC_NODE":342.8905,"ARG_OF_PERICENTER":78.5099,"MEAN_ANOMALY":281.6232,"EPHEMERIS_TYPE":0,"CLASSIFICATION_TYPE":"U","NORAD_CAT_ID":49189,"ELEMENT_SET_NO":999,"REV_AT_EPOCH":21597,"BSTAR":-0.00033986363,"MEAN_MOTION_DOT":-1.11e-6,"MEAN_MOTION_DDOT":0},{"OBJECT_NAME":"ONEWEB-0320","OBJECT_ID":"2021-083E","EPOCH":"2026-02-23T02:35:48.435936","MEAN_MOTION":13.18251797,"ECCENTRICITY":0.00010236,"INCLINATION":87.9331,"RA_OF_ASC_NODE":358.1156,"ARG_OF_PERICENTER":69.9562,"MEAN_ANOMALY":290.168,"EPHEMERIS_TYPE":0,"CLASSIFICATION_TYPE":"U","NORAD_CAT_ID":49190,"ELEMENT_SET_NO":999,"REV_AT_EPOCH":21494,"BSTAR":-0.055500821,"MEAN_MOTION_DOT":-0.00021677,"MEAN_MOTION_DDOT":0},{"OBJECT_NAME":"ONEWEB-0321","OBJECT_ID":"2021-083F","EPOCH":"2026-02-23T02:40:07.446720","MEAN_MOTION":13.20771863,"ECCENTRICITY":0.00016628,"INCLINATION":87.9198,"RA_OF_ASC_NODE":297.2093,"ARG_OF_PERICENTER":91.9601,"MEAN_ANOMALY":268.1723,"EPHEMERIS_TYPE":0,"CLASSIFICATION_TYPE":"U","NORAD_CAT_ID":49191,"ELEMENT_SET_NO":999,"REV_AT_EPOCH":22177,"BSTAR":0.00025935908,"MEAN_MOTION_DOT":1.18e-6,"MEAN_MOTION_DDOT":0},{"OBJECT_NAME":"ONEWEB-0322","OBJECT_ID":"2021-083G","EPOCH":"2026-02-23T04:38:56.378112","MEAN_MOTION":13.13467809,"ECCENTRICITY":0.00015519,"INCLINATION":87.9036,"RA_OF_ASC_NODE":342.911,"ARG_OF_PERICENTER":93.8122,"MEAN_ANOMALY":266.3185,"EPHEMERIS_TYPE":0,"CLASSIFICATION_TYPE":"U","NORAD_CAT_ID":49192,"ELEMENT_SET_NO":999,"REV_AT_EPOCH":21595,"BSTAR":-4.9441217e-5,"MEAN_MOTION_DOT":-5.0e-8,"MEAN_MOTION_DDOT":0},{"OBJECT_NAME":"ONEWEB-0324","OBJECT_ID":"2021-083H","EPOCH":"2026-02-23T05:53:02.197248","MEAN_MOTION":13.18685355,"ECCENTRICITY":0.00019911,"INCLINATION":87.924,"RA_OF_ASC_NODE":358.0707,"ARG_OF_PERICENTER":80.2314,"MEAN_ANOMALY":279.9043,"EPHEMERIS_TYPE":0,"CLASSIFICATION_TYPE":"U","NORAD_CAT_ID":49193,"ELEMENT_SET_NO":999,"REV_AT_EPOCH":21498,"BSTAR":0.00012499248,"MEAN_MOTION_DOT":6.2e-7,"MEAN_MOTION_DDOT":0},{"OBJECT_NAME":"ONEWEB-0325","OBJECT_ID":"2021-083J","EPOCH":"2026-02-22T06:17:22.787520","MEAN_MOTION":13.18684693,"ECCENTRICITY":0.00017885,"INCLINATION":87.9231,"RA_OF_ASC_NODE":358.2835,"ARG_OF_PERICENTER":79.6111,"MEAN_ANOMALY":280.5223,"EPHEMERIS_TYPE":0,"CLASSIFICATION_TYPE":"U","NORAD_CAT_ID":49194,"ELEMENT_SET_NO":999,"REV_AT_EPOCH":21486,"BSTAR":9.252115e-5,"MEAN_MOTION_DOT":4.9e-7,"MEAN_MOTION_DDOT":0},{"OBJECT_NAME":"ONEWEB-0326","OBJECT_ID":"2021-083K","EPOCH":"2026-02-23T06:19:21.855360","MEAN_MOTION":13.18686072,"ECCENTRICITY":0.00018124,"INCLINATION":87.9242,"RA_OF_ASC_NODE":358.0732,"ARG_OF_PERICENTER":70.1119,"MEAN_ANOMALY":290.0209,"EPHEMERIS_TYPE":0,"CLASSIFICATION_TYPE":"U","NORAD_CAT_ID":49195,"ELEMENT_SET_NO":999,"REV_AT_EPOCH":21498,"BSTAR":0.000276172,"MEAN_MOTION_DOT":1.22e-6,"MEAN_MOTION_DDOT":0},{"OBJECT_NAME":"ONEWEB-0327","OBJECT_ID":"2021-083L","EPOCH":"2026-02-23T06:18:58.207680","MEAN_MOTION":13.1868564,"ECCENTRICITY":0.00016856,"INCLINATION":87.9232,"RA_OF_ASC_NODE":358.0868,"ARG_OF_PERICENTER":69.2809,"MEAN_ANOMALY":290.8503,"EPHEMERIS_TYPE":0,"CLASSIFICATION_TYPE":"U","NORAD_CAT_ID":49196,"ELEMENT_SET_NO":999,"REV_AT_EPOCH":21500,"BSTAR":0.00025378331,"MEAN_MOTION_DOT":1.13e-6,"MEAN_MOTION_DDOT":0},{"OBJECT_NAME":"ONEWEB-0328","OBJECT_ID":"2021-083M","EPOCH":"2026-02-23T04:24:19.290240","MEAN_MOTION":13.13468262,"ECCENTRICITY":0.00019274,"INCLINATION":87.9052,"RA_OF_ASC_NODE":342.8706,"ARG_OF_PERICENTER":80.369,"MEAN_ANOMALY":279.7657,"EPHEMERIS_TYPE":0,"CLASSIFICATION_TYPE":"U","NORAD_CAT_ID":49197,"ELEMENT_SET_NO":999,"REV_AT_EPOCH":21593,"BSTAR":0.00070520119,"MEAN_MOTION_DOT":2.7e-6,"MEAN_MOTION_DDOT":0},{"OBJECT_NAME":"ONEWEB-0331","OBJECT_ID":"2021-083N","EPOCH":"2026-02-23T06:09:39.979872","MEAN_MOTION":13.18684829,"ECCENTRICITY":0.0002023,"INCLINATION":87.9242,"RA_OF_ASC_NODE":358.0678,"ARG_OF_PERICENTER":71.0121,"MEAN_ANOMALY":289.1231,"EPHEMERIS_TYPE":0,"CLASSIFICATION_TYPE":"U","NORAD_CAT_ID":49198,"ELEMENT_SET_NO":999,"REV_AT_EPOCH":21499,"BSTAR":0.00025746991,"MEAN_MOTION_DOT":1.14e-6,"MEAN_MOTION_DDOT":0},{"OBJECT_NAME":"ONEWEB-0333","OBJECT_ID":"2021-083P","EPOCH":"2026-02-23T06:06:42.276672","MEAN_MOTION":13.13468404,"ECCENTRICITY":0.00017268,"INCLINATION":87.903,"RA_OF_ASC_NODE":342.8976,"ARG_OF_PERICENTER":77.6415,"MEAN_ANOMALY":282.4908,"EPHEMERIS_TYPE":0,"CLASSIFICATION_TYPE":"U","NORAD_CAT_ID":49199,"ELEMENT_SET_NO":999,"REV_AT_EPOCH":21595,"BSTAR":0.00096378728,"MEAN_MOTION_DOT":3.65e-6,"MEAN_MOTION_DDOT":0},{"OBJECT_NAME":"ONEWEB-0334","OBJECT_ID":"2021-083Q","EPOCH":"2026-02-23T03:05:07.772352","MEAN_MOTION":13.20771164,"ECCENTRICITY":0.00014112,"INCLINATION":87.9185,"RA_OF_ASC_NODE":297.2257,"ARG_OF_PERICENTER":118.4632,"MEAN_ANOMALY":241.6644,"EPHEMERIS_TYPE":0,"CLASSIFICATION_TYPE":"U","NORAD_CAT_ID":49200,"ELEMENT_SET_NO":999,"REV_AT_EPOCH":22173,"BSTAR":4.6735984e-5,"MEAN_MOTION_DOT":3.2e-7,"MEAN_MOTION_DDOT":0}]
